PROMETHEUS 2-3          
1 41855U 16067H   25280.14277787  .00145665  00000+0  14326-2 0  9997
2 41855  98.0450 147.6494 0004875 147.2227 212.9334 15.65523895488985
CORVUS BC2              
1 42846U 17042X   25280.45323915  .00005232  00000+0  38317-3 0  9993
2 42846  97.3842  87.4211 0011944 253.7769 106.2143 15.03907054449042
CORVUS BC1              
1 42847U 17042Y   25280.41801150  .00006166  00000+0  44801-3 0  9994
2 42847  97.3865  88.0146 0011800 229.9419 130.0773 15.04141756449066
MIRATA                  
1 43015U 17073C   25280.71768798  .00563765  11651-3  23764-2 0  9994
2 43015  97.5096 182.7180 0030153  14.7925 345.4219 15.84691486429531
MAKERSAT 0              
1 43016U 17073D   25280.16908289  .00020965  00000+0  76275-3 0  9993
2 43016  97.4969 157.3523 0138598  84.8153 276.8881 15.19573721427878
SIRION PATHFINDER-2     
1 43759U 18099B   25280.88708421  .00009103  00000+0  54432-3 0  9993
2 43759  97.4645 330.9345 0010969  92.6089 267.6397 15.11231263374471
CORVUS BC4              
1 43767U 18099K   25280.84542492  .00006889  00000+0  43235-3 0  9999
2 43767  97.4456 326.1394 0009931 142.5956 217.5966 15.09565229374291
SPACEBEE-7              
1 43816U 18099BL  25280.67497908  .00069594  00000+0  14213-2 0  9991
2 43816  97.4828 353.7331 0004502  50.2899 309.8746 15.45919583375283
SHIELDS 1               
1 43850U 18104B   25280.82626493  .00080898  00000+0  63120-3 0  9998
2 43850  85.0085 311.3435 0005982  64.7778 295.4111 15.71390080380267
DUCHIFAT-3              
1 44854U 19089C   25280.43934897  .00145107  00000+0  15291-2 0  9993
2 44854  36.9365 306.2584 0007235 178.6912 181.3870 15.62842598321653
M2 PATHFINDER           
1 45727U 20037E   25280.48060544  .00003278  00000+0  24865-3 0  9992
2 45727  97.8140 104.1017 0011087 288.9844  71.0178 15.02903892287516
NETSAT-4                
1 46504U 20068U   25280.47746000  .00018883  00000+0  57875-3 0  9992
2 46504  97.8558 265.4138 0008826 127.2340 232.9708 15.33804517276907
NETSAT-3                
1 46505U 20068V   25280.39126026  .00019053  00000+0  61194-3 0  9993
2 46505  97.8574 263.9813 0008238 137.6417 222.5461 15.32313495276838
NETSAT-1                
1 46506U 20068W   25279.92815180  .00014932  00000+0  57085-3 0  9992
2 46506  97.8605 260.3848 0007151 154.0534 206.1063 15.26687901276553
NETSAT-2                
1 46507U 20068X   25280.94367229  .00027319  00000+0  83431-3 0  9990
2 46507  97.8570 265.3515 0006530 143.5280 216.6407 15.33855750276917
WILDTRACKCUBE-SIMBA     
1 47941U 21022K   25280.92088836  .00078821  00000+0  11732-2 0  9994
2 47941  97.4077 188.7309 0005722 204.8269 155.2711 15.54850398251822
LEDSAT                  
1 49069U 21073D   25280.70838062  .00987778  51155-3  15891-2 0  9994
2 49069  97.3657   9.3426 0007469 287.6605  72.3860 16.03611981230312
GREENCUBE (IO-117)      
1 53109U 22080E   25280.74200293 -.00000003  00000+0  00000+0 0  9996
2 53109  70.1613  26.0218 0008631 343.1541  16.8831  6.42583561 75847
SITRO-AIS 5 (KATYS)     
1 57176U 23091L   25280.96383593  .00017203  00000+0  74795-3 0  9991
2 57176  97.5447 338.1965 0011808 269.1611  90.8272 15.22277336125872
SITRO-AIS 6 (CHIRKIN)   
1 57192U 23091AC  25280.96572575  .00009960  00000+0  44255-3 0  9998
2 57192  97.5446 338.1722 0011208 269.2062  90.7889 15.21678903125872
SITRO-AIS 8 (ANOKHIN)   
1 57193U 23091AD  25280.94315090  .00018526  00000+0  76820-3 0  9995
2 57193  97.5442 338.9477 0011133 267.4136  92.5826 15.23875892125928
SITRO-AIS 7 (FARTUSHNIY)
1 57194U 23091AE  25280.93032366  .00009249  00000+0  41299-3 0  9991
2 57194  97.5446 338.0548 0011081 270.8008  89.1957 15.21531863125866
SITRO-AIS 10 (BURDAEV)  
1 57199U 23091AK  25280.97077881  .00024443  00000+0  90051-3 0  9994
2 57199  97.5454 341.9782 0007397 243.9522 116.0956 15.27795454126112
SITRO-AIS 9 (SHCHUKIN)  
1 57201U 23091AM  25280.93883001  .00024175  00000+0  89717-3 0  9992
2 57201  97.5452 341.8178 0007442 244.9954 115.0513 15.27557146126104
SITRO-AIS 12 (SMIRENNIY)
1 57204U 23091AQ  25280.97032167  .00023861  00000+0  87961-3 0  9998
2 57204  97.5462 342.1846 0007399 236.7986 123.2543 15.27780670126125
SITRO-AIS 11 (SHEFFER)  
1 57208U 23091AU  25280.97146875  .00024436  00000+0  89407-3 0  9990
2 57208  97.5460 342.3125 0007292 237.1973 122.8564 15.28024154126130
ROBUSTA-1E (ENSO)       
1 58470U 23185J   25279.21190108  .00226283  00000+0  12500-2 0  9992
2 58470  97.3583 359.4701 0003564 314.7744  45.3232 15.78998950103574
SITRO-AIS 25            
1 59066U 24039R   25280.96798076  .00009745  00000+0  79848-3 0  9996
2 59066  95.3898  62.0542 0153744 127.9722 233.5506 14.90504999 87114
SITRO-AIS 26            
1 59067U 24039S   25280.93885725  .00011570  00000+0  95064-3 0  9999
2 59067  95.3896  61.9765 0154015 128.4040 233.1131 14.90345504 87103
SITRO-AIS 27            
1 59068U 24039T   25280.97413668  .00010394  00000+0  84855-3 0  9996
2 59068  95.3898  62.1676 0153134 127.4315 234.0958 14.90694547 87128
SITRO-AIS 28            
1 59071U 24039U   25280.95796234  .00011249  00000+0  91698-3 0  9994
2 59071  95.3901  62.1898 0153118 127.3516 234.1770 14.90738415 87123
GRBBETA                 
1 60237U 24128C   25280.67803615  .00006502  00000+0  46869-3 0  9996
2 60237  61.9931  20.4907 0056842  82.7651 277.9897 15.03845825 68256
OOV-CUBE (TUBSAT-30)    
1 60240U 24128F   25280.67586305  .00004032  00000+0  31892-3 0  9990
2 60240  61.9975  25.0263 0058358  80.2134 280.5539 15.01035147 68188
ROBUSTA-3A (MEDITERRAN*)
1 60243U 24128J   25280.73077055  .00011020  00000+0  72638-3 0  9995
2 60243  61.9897  17.8674 0056231  76.8043 283.9315 15.06645925 68317
LASARSAT                
1 62391U 24247Q   25280.89588557  .00034534  00000+0  11591-2 0  9999
2 62391  44.9805 222.8332 0005140  40.7606 319.3662 15.30332111 44466
CROCUBE                 
1 62394U 24247T   25280.21578558  .00028436  00000+0  94638-3 0  9996
2 62394  44.9758 226.1625 0006626  47.7312 312.4133 15.30686184 44367
